{
  "57126": {
    "noradId": "57126",
    "tle": [
      "1 57126C 23090AB  25302.82895833 -.00004669  00000+0 -34449-3 0  3024",
      "2 57126  43.0034 265.4486 0001442 268.4225  17.8237 15.02537750    16"
    ]
  },
  "57127": {
    "noradId": "57127",
    "tle": [
      "1 57127C 23090AC  25302.83381944  .00015649  00000+0  11549-2 0  3022",
      "2 57127  43.0028 265.2876 0001426 268.0369  98.6562 15.02512805    10"
    ]
  },
  "57128": {
    "noradId": "57128",
    "tle": [
      "1 57128C 23090AD  25302.83312500  .00002221  00000+0  16385-3 0  3021",
      "2 57128  43.0032 265.3821 0001366 267.2849  59.5606 15.02532085    11"
    ]
  },
  "57129": {
    "noradId": "57129",
    "tle": [
      "1 57129C 23090AE  25302.83243056  .00016913  00000+0  12484-2 0  3029",
      "2 57129  43.0026 253.2050 0001374 255.3714  77.7415 15.02505686    10"
    ]
  },
  "57130": {
    "noradId": "57130",
    "tle": [
      "1 57130C 23090AF  25302.82965278 -.00020125  00000+0 -14845-2 0  3022",
      "2 57130  43.0032 265.3279 0001220 272.6318  65.4401 15.02566065    15"
    ]
  },
  "57131": {
    "noradId": "57131",
    "tle": [
      "1 57131C 23090AG  25302.82895833  .00016733  00000+0  12352-2 0  3021",
      "2 57131  43.0027 253.1651 0001418 266.4438  71.9024 15.02502340    11"
    ]
  },
  "57132": {
    "noradId": "57132",
    "tle": [
      "1 57132C 23090AH  25302.83451389 -.00005844  00000+0 -43117-3 0  3024",
      "2 57132  43.0030 265.2166 0001379 267.8047 132.6721 15.02543332    13"
    ]
  },
  "57133": {
    "noradId": "57133",
    "tle": [
      "1 57133C 23090AJ  25302.82965278  .00017733  00000+0  13083-2 0  3027",
      "2 57133  43.0027 252.9896 0001263 258.9940 155.1964 15.02522132    12"
    ]
  },
  "57134": {
    "noradId": "57134",
    "tle": [
      "1 57134C 23090AK  25302.83451389 -.00031674  00000+0 -23366-2 0  3029",
      "2 57134  43.0028 253.1483 0001179 262.7274  99.6551 15.02576238    18"
    ]
  },
  "57135": {
    "noradId": "57135",
    "tle": [
      "1 57135C 23090AL  25302.83104167 -.00050801  00000+0 -37485-2 0  3029",
      "2 57135  43.0029 252.8520 0001306 269.0118 206.8623 15.02585787    18"
    ]
  },
  "57136": {
    "noradId": "57136",
    "tle": [
      "1 57136C 23090AM  25302.83520833 -.00003161  00000+0 -23325-3 0  3028",
      "2 57136  43.0019 253.0996 0001341 265.8015 118.4078 15.02535287    19"
    ]
  },
  "57137": {
    "noradId": "57137",
    "tle": [
      "1 57137C 23090AN  25302.83381944  .00016174  00000+0  11935-2 0  3026",
      "2 57137  43.0028 252.9347 0001389 266.9155 181.8913 15.02515727    16"
    ]
  },
  "57138": {
    "noradId": "57138",
    "tle": [
      "1 57138C 23090AP  25302.83590278 -.00012773  00000+0 -94250-3 0  3024",
      "2 57138  43.0018 253.0795 0001343 269.0120 124.9519 15.02548253    11"
    ]
  },
  "57139": {
    "noradId": "57139",
    "tle": [
      "1 57139C 23090AQ  25302.83729167  .00030135  00000+0  22247-2 0  3022",
      "2 57139  43.0019 252.8560 0001479 268.8534 222.7406 15.02486223    16"
    ]
  },
  "57141": {
    "noradId": "57141",
    "tle": [
      "1 57141C 23090AS  25302.83243056 -.00013224  00000+0 -97580-3 0  3028",
      "2 57141  43.0026 252.8132 0001313 269.6220 225.7536 15.02547008    16"
    ]
  },
  "57142": {
    "noradId": "57142",
    "tle": [
      "1 57142C 23090AT  25302.83729167 -.00004978  00000+0 -36734-3 0  3021",
      "2 57142  43.0027 252.7247 0001382 266.7418 279.0049 15.02536146    19"
    ]
  },
  "57143": {
    "noradId": "57143",
    "tle": [
      "1 57143C 23090AU  25302.83520833  .00016336  00000+0  12056-2 0  3020",
      "2 57143  43.0028 252.6984 0001089 258.8512 293.6612 15.02515013    17"
    ]
  },
  "57144": {
    "noradId": "57144",
    "tle": [
      "1 57144C 23090AV  25302.83798611  .00016509  00000+0  12185-2 0  3027",
      "2 57144  43.0030 252.8254 0001501 266.6807 240.7748 15.02508322    14"
    ]
  },
  "57145": {
    "noradId": "57145",
    "tle": [
      "1 57145C 23090AW  25302.83451389  .00016645  00000+0  12283-2 0  3026",
      "2 57145  43.0022 252.5827 0001395 257.8724 338.9717 15.02513540    14"
    ]
  },
  "57146": {
    "noradId": "57146",
    "tle": [
      "1 57146C 23090AX  25302.83520833  .00015687  00000+0  11576-2 0  3027",
      "2 57146  43.0029 252.6669 0001360 267.6256 296.9008 15.02516271    18"
    ]
  },
  "57147": {
    "noradId": "57147",
    "tle": [
      "1 57147C 23090AY  25302.83520833  .00002852  00000+0  21047-3 0  3023",
      "2 57147  43.0027 252.5222 0001468 269.1745 355.4573 15.02524969    11"
    ]
  },
  "57148": {
    "noradId": "57148",
    "tle": [
      "1 57148C 23090AZ  25302.83590278  .00016881  00000+0  12466-2 0  3025",
      "2 57148  43.0018 252.4300 0001212 265.9281  38.4697 15.02488353    15"
    ]
  },
  "57149": {
    "noradId": "57149",
    "tle": [
      "1 57149C 23090BA  25302.83312500  .00015201  00000+0  11219-2 0  3026",
      "2 57149  43.0024 226.6721 0001413 269.1846 269.2771 15.02512929    13"
    ]
  },
  "57150": {
    "noradId": "57150",
    "tle": [
      "1 57150C 23090BB  25302.83520833  .00000410  00000+0  30286-4 0  3021",
      "2 57150  43.0022 252.6223 0001260 265.5139 317.0453 15.02527730    19"
    ]
  },
  "57151": {
    "noradId": "57151",
    "tle": [
      "1 57151C 23090BC  25302.83104167  .00000208  00000+0  15326-4 0  3023",
      "2 57151  43.0027 252.6303 0001342 265.4469 300.5618 15.02527739    19"
    ]
  },
  "57152": {
    "noradId": "57152",
    "tle": [
      "1 57152C 23090BD  25302.83312500  .00004113  00000+0  30352-3 0  3020",
      "2 57152  43.0023 252.6637 0001306 265.1465 294.0966 15.02525349    17"
    ]
  },
  "57153": {
    "noradId": "57153",
    "tle": [
      "1 57153C 23090BE  25302.83659722  .00018525  00000+0  13666-2 0  3021",
      "2 57153  43.0025 239.9339 0001371 273.4356 176.9057 15.02525275    17"
    ]
  },
  "57154": {
    "noradId": "57154",
    "tle": [
      "1 57154C 23090BF  25302.83034722 -.00002189  00000+0 -16154-3 0  3026",
      "2 57154  43.0021 252.5611 0001363 266.1098 326.1897 15.02530565    10"
    ]
  },
  "57155": {
    "noradId": "57155",
    "tle": [
      "1 57155C 23090BG  25302.83034722  .00016761  00000+0  12369-2 0  3029",
      "2 57155  43.0026 252.3779 0001330 268.4280  42.0060 15.02514226    13"
    ]
  },
  "57156": {
    "noradId": "57156",
    "tle": [
      "1 57156C 23090BH  25302.83173611  .00016100  00000+0  11880-2 0  3025",
      "2 57156  43.0026 252.4121 0001345 258.4878  41.4413 15.02517503    10"
    ]
  },
  "57218": {
    "noradId": "57218",
    "tle": [
      "1 57218C 23094A   25302.83451389  .00005163  00000+0  38096-3 0  3025",
      "2 57218  43.0040  21.7636 0001340 265.1816  10.1973 15.02526917    18"
    ]
  },
  "57219": {
    "noradId": "57219",
    "tle": [
      "1 57219C 23094B   25302.83034722 -.00017910  00000+0 -13215-2 0  3024",
      "2 57219  43.0037  21.7441 0001424 264.9490   5.8954 15.02552694    18"
    ]
  },
  "57220": {
    "noradId": "57220",
    "tle": [
      "1 57220C 23094C   25302.83590278 -.00004120  00000+0 -30403-3 0  3027",
      "2 57220  43.0038  21.5100 0001404 269.2291 115.8333 15.02539235    15"
    ]
  },
  "57221": {
    "noradId": "57221",
    "tle": [
      "1 57221C 23094D   25302.83798611 -.00021378  00000+0 -15775-2 0  3027",
      "2 57221  43.0038  21.6741 0001353 264.6025  59.6250 15.02554246    17"
    ]
  },
  "57222": {
    "noradId": "57222",
    "tle": [
      "1 57222C 23094E   25302.83173611 -.00018441  00000+0 -13607-2 0  3024",
      "2 57222  43.0037  21.6204 0001504 266.2143  60.2234 15.02552514    14"
    ]
  },
  "57223": {
    "noradId": "57223",
    "tle": [
      "1 57223C 23094F   25302.83520833  .00004818  00000+0  35552-3 0  3022",
      "2 57223  43.0040  21.6431 0001419 265.5065  61.7023 15.02530184    12"
    ]
  },
  "57224": {
    "noradId": "57224",
    "tle": [
      "1 57224C 23094G   25302.82965278 -.00008149  00000+0 -60130-3 0  3021",
      "2 57224  43.0036  21.5887 0001505 260.2067  72.9863 15.02541985    19"
    ]
  },
  "57225": {
    "noradId": "57225",
    "tle": [
      "1 57225C 23094H   25302.83173611  .00006035  00000+0  44536-3 0  3027",
      "2 57225  43.0039  21.6859 0001299 268.3095  28.0820 15.02525319    11"
    ]
  },
  "57226": {
    "noradId": "57226",
    "tle": [
      "1 57226C 23094J   25302.83312500 -.00011682  00000+0 -86197-3 0  3025",
      "2 57226  43.0036  21.4230 0001615 263.0493 149.0570 15.02546127    12"
    ]
  },
  "57227": {
    "noradId": "57227",
    "tle": [
      "1 57227C 23094K   25302.82756944 -.00015554  00000+0 -11477-2 0  3029",
      "2 57227  43.0037  21.5120 0001393 263.9894  93.9787 15.02550319    15"
    ]
  },
  "57228": {
    "noradId": "57228",
    "tle": [
      "1 57228C 23094L   25302.82131944  .00007310  00000+0  53934-3 0  3021",
      "2 57228  43.0036  21.4433 0001278 268.9031  97.3021 15.02529548    10"
    ]
  },
  "57229": {
    "noradId": "57229",
    "tle": [
      "1 57229C 23094M   25302.83312500 -.00010204  00000+0 -75287-3 0  3025",
      "2 57229  43.0040  21.4671 0001448 262.8729 131.1980 15.02546526    12"
    ]
  },
  "57230": {
    "noradId": "57230",
    "tle": [
      "1 57230C 23094N   25302.83520833  .00005291  00000+0  39035-3 0  3026",
      "2 57230  43.0040  21.2976 0001361 265.7340 205.7265 15.02532939    12"
    ]
  },
  "57231": {
    "noradId": "57231",
    "tle": [
      "1 57231C 23094P   25302.83173611  .00005428  00000+0  40061-3 0  3028",
      "2 57231  43.0034  21.0124 0001467 263.3302 315.5894 15.02517541    18"
    ]
  },
  "57232": {
    "noradId": "57232",
    "tle": [
      "1 57232C 23094Q   25302.83104167  .00008333  00000+0  61540-3 0  3022",
      "2 57232  43.0034  20.9984 0001102 274.3461 306.8936 15.02494724    12"
    ]
  }
}